start=new Date('2021-08-26T00:00:00.000Z').valueOf();
sats=[{"TLE_LINE1":"1 47388U 21005AR  21237.66006969  .00000875  00000-0  77616-4 0  9996","MEAN_ANOMALY":"250.6380","LAUNCH_DATE":"2021-01-20","CLASSIFICATION_TYPE":"U","EPOCH":"2021-08-25T15:50:30.021216","TIME_SYSTEM":"UTC","MEAN_ELEMENT_THEORY":"SGP4","OBJECT_TYPE":"PAYLOAD","APOAPSIS":"547.754","MEAN_MOTION":"15.06401833","TLE_LINE2":"2 47388  53.0557 300.3116 0000788 109.4694 250.6380 15.06401833 33288","SITE":"AFETR","ARG_OF_PERICENTER":"109.4694","RCS_SIZE":"LARGE","INCLINATION":"53.0557","ELEMENT_SET_NO":"999","GP_ID":"183446200","PERIAPSIS":"546.662","EPHEMERIS_TYPE":"0","DECAY_DATE":null,"SEMIMAJOR_AXIS":"6925.343","ECCENTRICITY":"0.00007880","MEAN_MOTION_DDOT":"0.0000000000000","BSTAR":"0.00007761600000","REV_AT_EPOCH":"3328","REF_FRAME":"TEME","OBJECT_ID":"2021-005AR","RA_OF_ASC_NODE":"300.3116","FILE":"3103208","PERIOD":"95.592","CENTER_NAME":"EARTH","OBJECT_NAME":"STARLINK-2109","COUNTRY_CODE":"US","MEAN_MOTION_DOT":"0.00000875","NORAD_CAT_ID":"47388"},{"FILE":"3103208","PERIOD":"95.592","OBJECT_NAME":"STARLINK-2110","CENTER_NAME":"EARTH","COUNTRY_CODE":"US","MEAN_MOTION_DOT":"0.00001038","NORAD_CAT_ID":"47389","OBJECT_ID":"2021-005AS","REV_AT_EPOCH":"3360","REF_FRAME":"TEME","RA_OF_ASC_NODE":"279.2186","ECCENTRICITY":"0.00007400","MEAN_MOTION_DDOT":"0.0000000000000","BSTAR":"0.00008857400000","PERIAPSIS":"546.707","DECAY_DATE":null,"SEMIMAJOR_AXIS":"6925.355","EPHEMERIS_TYPE":"0","ARG_OF_PERICENTER":"79.7131","RCS_SIZE":"LARGE","INCLINATION":"53.0503","ELEMENT_SET_NO":"999","GP_ID":"183446946","OBJECT_TYPE":"PAYLOAD","APOAPSIS":"547.732","MEAN_MOTION":"15.06397935","TIME_SYSTEM":"UTC","MEAN_ELEMENT_THEORY":"SGP4","SITE":"AFETR","TLE_LINE2":"2 47389  53.0503 279.2186 0000740  79.7131 280.3942 15.06397935 33601","EPOCH":"2021-08-25T21:43:28.019424","CLASSIFICATION_TYPE":"U","TLE_LINE1":"1 47389U 21005AS  21237.90518541  .00001038  00000-0  88574-4 0  9995","MEAN_ANOMALY":"280.3942","LAUNCH_DATE":"2021-01-20"},{"CLASSIFICATION_TYPE":"U","EPOCH":"2021-08-25T21:35:30.754464","TLE_LINE1":"1 47390U 21005AT  21237.89966151  .00000870  00000-0  77281-4 0  9995","MEAN_ANOMALY":"281.4135","LAUNCH_DATE":"2021-01-20","RCS_SIZE":"LARGE","ARG_OF_PERICENTER":"78.6954","GP_ID":"183446705","ELEMENT_SET_NO":"999","INCLINATION":"53.0553","MEAN_MOTION":"15.06396086","APOAPSIS":"547.846","OBJECT_TYPE":"PAYLOAD","MEAN_ELEMENT_THEORY":"SGP4","TIME_SYSTEM":"UTC","SITE":"AFETR","TLE_LINE2":"2 47390  53.0553 299.2265 0000896  78.6954 281.4135 15.06396086 33322","MEAN_MOTION_DDOT":"0.0000000000000","ECCENTRICITY":"0.00008960","BSTAR":"0.00007728100000","PERIAPSIS":"546.605","SEMIMAJOR_AXIS":"6925.361","DECAY_DATE":null,"EPHEMERIS_TYPE":"0","CENTER_NAME":"EARTH","OBJECT_NAME":"STARLINK-2111","FILE":"3103208","PERIOD":"95.592","NORAD_CAT_ID":"47390","COUNTRY_CODE":"US","MEAN_MOTION_DOT":"0.00000870","OBJECT_ID":"2021-005AT","REF_FRAME":"TEME","REV_AT_EPOCH":"3332","RA_OF_ASC_NODE":"299.2265"},{"CLASSIFICATION_TYPE":"U","EPOCH":"2021-08-25T13:51:03.575808","TLE_LINE1":"1 47391U 21005AU  21237.57712472  .00001057  00000-0  89806-4 0  9990","LAUNCH_DATE":"2021-01-20","MEAN_ANOMALY":"215.4278","RCS_SIZE":"LARGE","ARG_OF_PERICENTER":"144.6721","GP_ID":"183445956","INCLINATION":"53.0522","ELEMENT_SET_NO":"999","MEAN_ELEMENT_THEORY":"SGP4","TIME_SYSTEM":"UTC","APOAPSIS":"547.324","MEAN_MOTION":"15.06397271","OBJECT_TYPE":"PAYLOAD","SITE":"AFETR","TLE_LINE2":"2 47391  53.0522 270.6835 0000148 144.6721 215.4278 15.06397271 33693","MEAN_MOTION_DDOT":"0.0000000000000","ECCENTRICITY":"0.00001480","BSTAR":"0.00008980600000","PERIAPSIS":"547.119","EPHEMERIS_TYPE":"0","SEMIMAJOR_AXIS":"6925.357","DECAY_DATE":null,"OBJECT_NAME":"STARLINK-2112","CENTER_NAME":"EARTH","PERIOD":"95.592","FILE":"3103208","NORAD_CAT_ID":"47391","COUNTRY_CODE":"US","MEAN_MOTION_DOT":"0.00001057","REV_AT_EPOCH":"3369","REF_FRAME":"TEME","OBJECT_ID":"2021-005AU","RA_OF_ASC_NODE":"270.6835"},{"EPHEMERIS_TYPE":"0","DECAY_DATE":null,"SEMIMAJOR_AXIS":"6925.392","PERIAPSIS":"547.064","BSTAR":"0.00005031400000","ECCENTRICITY":"0.00002780","MEAN_MOTION_DDOT":"0.0000000000000","RA_OF_ASC_NODE":"270.6849","REV_AT_EPOCH":"3369","REF_FRAME":"TEME","OBJECT_ID":"2021-005AV","MEAN_MOTION_DOT":"0.00000468","COUNTRY_CODE":"US","NORAD_CAT_ID":"47392","PERIOD":"95.593","FILE":"3103208","CENTER_NAME":"EARTH","OBJECT_NAME":"STARLINK-2113","LAUNCH_DATE":"2021-01-20","MEAN_ANOMALY":"308.0457","TLE_LINE1":"1 47392U 21005AV  21237.57807247  .00000468  00000-0  50314-4 0  9993","EPOCH":"2021-08-25T13:52:25.461408","CLASSIFICATION_TYPE":"U","TLE_LINE2":"2 47392  53.0510 270.6849 0000278  52.0557 308.0457 15.06385889 33699","SITE":"AFETR","TIME_SYSTEM":"UTC","MEAN_ELEMENT_THEORY":"SGP4","OBJECT_TYPE":"PAYLOAD","MEAN_MOTION":"15.06385889","APOAPSIS":"547.449","ELEMENT_SET_NO":"999","INCLINATION":"53.0510","GP_ID":"183445700","ARG_OF_PERICENTER":"52.0557","RCS_SIZE":"LARGE"},{"BSTAR":"0.00002729600000","MEAN_MOTION_DDOT":"0.0000000000000","ECCENTRICITY":"0.00014370","SEMIMAJOR_AXIS":"6925.342","DECAY_DATE":null,"EPHEMERIS_TYPE":"0","PERIAPSIS":"546.212","NORAD_CAT_ID":"47393","MEAN_MOTION_DOT":"0.00000125","COUNTRY_CODE":"US","CENTER_NAME":"EARTH","OBJECT_NAME":"STARLINK-2114","FILE":"3103042","PERIOD":"95.592","RA_OF_ASC_NODE":"246.4177","OBJECT_ID":"2021-005AW","REF_FRAME":"TEME","REV_AT_EPOCH":"3402","CLASSIFICATION_TYPE":"U","EPOCH":"2021-08-25T10:29:59.853120","MEAN_ANOMALY":"299.6921","LAUNCH_DATE":"2021-01-20","TLE_LINE1":"1 47393U 21005AW  21237.43749830  .00000125  00000-0  27296-4 0  9995","GP_ID":"183419995","INCLINATION":"53.0336","ELEMENT_SET_NO":"999","ARG_OF_PERICENTER":"60.4211","RCS_SIZE":"LARGE","TLE_LINE2":"2 47393  53.0336 246.4177 0001437  60.4211 299.6921 15.06402097 34029","SITE":"AFETR","APOAPSIS":"548.202","MEAN_MOTION":"15.06402097","OBJECT_TYPE":"PAYLOAD","MEAN_ELEMENT_THEORY":"SGP4","TIME_SYSTEM":"UTC"},{"MEAN_ANOMALY":"25.2027","LAUNCH_DATE":"2021-01-20","TLE_LINE1":"1 47394U 21005AX  21237.78583473 -.00001052  00000-0 -51766-4 0  9994","EPOCH":"2021-08-25T18:51:36.120672","CLASSIFICATION_TYPE":"U","TLE_LINE2":"2 47394  53.0567 264.7490 0000319 334.8947  25.2027 15.06391919 33804","SITE":"AFETR","TIME_SYSTEM":"UTC","MEAN_ELEMENT_THEORY":"SGP4","OBJECT_TYPE":"PAYLOAD","APOAPSIS":"547.459","MEAN_MOTION":"15.06391919","INCLINATION":"53.0567","ELEMENT_SET_NO":"999","GP_ID":"183447206","ARG_OF_PERICENTER":"334.8947","RCS_SIZE":"LARGE","EPHEMERIS_TYPE":"0","DECAY_DATE":null,"SEMIMAJOR_AXIS":"6925.373","PERIAPSIS":"547.017","BSTAR":"-0.00005176600000","ECCENTRICITY":"0.00003190","MEAN_MOTION_DDOT":"0.0000000000000","RA_OF_ASC_NODE":"264.7490","REV_AT_EPOCH":"3380","REF_FRAME":"TEME","OBJECT_ID":"2021-005AX","COUNTRY_CODE":"US","MEAN_MOTION_DOT":"-0.00001052","NORAD_CAT_ID":"47394","PERIOD":"95.593","FILE":"3103208","OBJECT_NAME":"STARLINK-2115","CENTER_NAME":"EARTH"},{"CLASSIFICATION_TYPE":"U","EPOCH":"2021-08-25T18:08:30.598080","MEAN_ANOMALY":"331.0499","LAUNCH_DATE":"2021-01-20","TLE_LINE1":"1 47395U 21005AY  21237.75590970  .00000778  00000-0  71080-4 0  9995","ELEMENT_SET_NO":"999","INCLINATION":"53.0529","GP_ID":"183445456","RCS_SIZE":"LARGE","ARG_OF_PERICENTER":"29.0512","SITE":"AFETR","TLE_LINE2":"2 47395  53.0529 259.8736 0000388  29.0512 331.0499 15.06395792 33868","OBJECT_TYPE":"PAYLOAD","MEAN_MOTION":"15.06395792","APOAPSIS":"547.495","TIME_SYSTEM":"UTC","MEAN_ELEMENT_THEORY":"SGP4","BSTAR":"0.00007108000000","ECCENTRICITY":"0.00003880","MEAN_MOTION_DDOT":"0.0000000000000","DECAY_DATE":null,"SEMIMAJOR_AXIS":"6925.361","EPHEMERIS_TYPE":"0","PERIAPSIS":"546.958","MEAN_MOTION_DOT":"0.00000778","COUNTRY_CODE":"US","NORAD_CAT_ID":"47395","FILE":"3103208","PERIOD":"95.592","OBJECT_NAME":"STARLINK-2117","CENTER_NAME":"EARTH","RA_OF_ASC_NODE":"259.8736","OBJECT_ID":"2021-005AY","REV_AT_EPOCH":"3386","REF_FRAME":"TEME"},{"LAUNCH_DATE":"2021-01-20","MEAN_ANOMALY":"273.6310","TLE_LINE1":"1 47396U 21005AZ  21237.79922093 -.00000926  00000-0 -43321-4 0  9999","CLASSIFICATION_TYPE":"U","EPOCH":"2021-08-25T19:10:52.688352","TLE_LINE2":"2 47396  53.0550 269.6803 0000097  86.4690 273.6310 15.06391779 33738","SITE":"AFETR","MEAN_MOTION":"15.06391779","APOAPSIS":"547.306","OBJECT_TYPE":"PAYLOAD","MEAN_ELEMENT_THEORY":"SGP4","TIME_SYSTEM":"UTC","GP_ID":"183446201","INCLINATION":"53.0550","ELEMENT_SET_NO":"999","ARG_OF_PERICENTER":"86.4690","RCS_SIZE":"LARGE","SEMIMAJOR_AXIS":"6925.374","DECAY_DATE":null,"EPHEMERIS_TYPE":"0","PERIAPSIS":"547.172","BSTAR":"-0.00004332100000","MEAN_MOTION_DDOT":"0.0000000000000","ECCENTRICITY":"0.00000970","RA_OF_ASC_NODE":"269.6803","OBJECT_ID":"2021-005AZ","REV_AT_EPOCH":"3373","REF_FRAME":"TEME","NORAD_CAT_ID":"47396","COUNTRY_CODE":"US","MEAN_MOTION_DOT":"-0.00000926","OBJECT_NAME":"STARLINK-2118","CENTER_NAME":"EARTH","PERIOD":"95.593","FILE":"3103208"},{"OBJECT_TYPE":"PAYLOAD","APOAPSIS":"547.701","MEAN_MOTION":"15.06394490","TIME_SYSTEM":"UTC","MEAN_ELEMENT_THEORY":"SGP4","SITE":"AFETR","TLE_LINE2":"2 47397  53.0558 299.4127 0000679 116.2661 243.8397 15.06394490 33325","ARG_OF_PERICENTER":"116.2661","RCS_SIZE":"LARGE","INCLINATION":"53.0558","ELEMENT_SET_NO":"999","GP_ID":"183446947","TLE_LINE1":"1 47397U 21005BA  21237.86280115  .00000644  00000-0  62084-4 0  9992","MEAN_ANOMALY":"243.8397","LAUNCH_DATE":"2021-01-20","CLASSIFICATION_TYPE":"U","EPOCH":"2021-08-25T20:42:26.019360","OBJECT_ID":"2021-005BA","REF_FRAME":"TEME","REV_AT_EPOCH":"3332","RA_OF_ASC_NODE":"299.4127","PERIOD":"95.592","FILE":"3103208","OBJECT_NAME":"STARLINK-2119","CENTER_NAME":"EARTH","MEAN_MOTION_DOT":"0.00000644","COUNTRY_CODE":"US","NORAD_CAT_ID":"47397","PERIAPSIS":"546.760","DECAY_DATE":null,"SEMIMAJOR_AXIS":"6925.365","EPHEMERIS_TYPE":"0","ECCENTRICITY":"0.00006790","MEAN_MOTION_DDOT":"0.0000000000000","BSTAR":"0.00006208400000"}];
